IRIDIUM 138             
1 43071U 17083B   26201.80535995  .00000084  00000+0  22876-4 0  9999
2 43071  86.4000 307.6640 0002055  95.5194 264.6236 14.34217318448959
IRIDIUM 116             
1 43072U 17083C   26201.77364891  .00000128  00000+0  38565-4 0  9992
2 43072  86.3986 307.9622 0002503  97.3299 262.8182 14.34217170448988
IRIDIUM 130             
1 43073U 17083D   26201.81170382  .00000327  00000+0  10981-3 0  9990
2 43073  86.3994 308.2250 0002296 100.2882 259.8572 14.34218851448931
IRIDIUM 151             
1 43074U 17083E   26201.78633341  .00000072  00000+0  18788-4 0  9997
2 43074  86.3988 308.0154 0002268  95.1496 264.9958 14.34217841448953
IRIDIUM 134             
1 43075U 17083F   26201.75462016  .00000032  00000+0  43473-5 0  9990
2 43075  86.3988 308.0373 0002238  96.1396 264.0054 14.34217811448915
IRIDIUM 137             
1 43076U 17083G   26201.83707480  .00000001  00000+0 -66193-5 0  9998
2 43076  86.3988 308.0963 0002534  90.4594 269.6892 14.34217581448990
IRIDIUM 141             
1 43077U 17083H   26201.83073182  .00000046  00000+0  95223-5 0  9998
2 43077  86.3985 307.9276 0002149  94.1902 265.9540 14.34217364448997
IRIDIUM 153             
1 43078U 17083J   26201.71314111  .00000005  00000+0 -53061-5 0  9996
2 43078  86.3954 276.4546 0002021  95.9074 264.2352 14.34217524450086
IRIDIUM 131             
1 43079U 17083K   26201.81804625 -.00000015  00000+0 -12471-4 0  9993
2 43079  86.3988 308.1211 0002094  93.4758 266.6678 14.34217427448927
IRIDIUM 144             
1 43249U 18030A   26201.71948426  .00000062  00000+0  14916-4 0  9998
2 43249  86.3954 276.3807 0002388  96.2416 263.9052 14.34217383434948
IRIDIUM 149             
1 43250U 18030B   26201.72582688 -.00000015  00000+0 -12318-4 0  9999
2 43250  86.3951 276.3444 0002134  93.9030 266.2410 14.34217365434965
IRIDIUM 157             
1 43251U 18030C   26201.74485471  .00000108  00000+0  31563-4 0  9998
2 43251  86.3951 276.3904 0002236  94.5633 265.5818 14.34217951434949
IRIDIUM 140             
1 43252U 18030D   26201.76388216  .00000139  00000+0  42419-4 0  9996
2 43252  86.3952 276.3950 0002269  95.6036 264.5418 14.34219048435009
IRIDIUM 145             
1 43253U 18030E   26201.75119814  .00000020  00000+0  37601-7 0  9991
2 43253  86.3952 276.3724 0002586  97.3671 262.7819 14.34217338434931
IRIDIUM 146             
1 43254U 18030F   26201.73217016  .00000009  00000+0 -40167-5 0  9990
2 43254  86.3953 276.3925 0002271  95.7261 264.4193 14.34217280434945
IRIDIUM 148             
1 43255U 18030G   26201.70045699  .00000126  00000+0  37909-4 0  9992
2 43255  86.3954 276.4498 0002307  94.7759 265.3701 14.34217972434970
IRIDIUM 142             
1 43256U 18030H   26201.73851280  .00000005  00000+0 -53596-5 0  9995
2 43256  86.3951 276.3213 0002321  96.5837 263.5623 14.34217147434949
IRIDIUM 150             
1 43257U 18030J   26201.70679941  .00000013  00000+0 -23741-5 0  9993
2 43257  86.3953 276.4522 0002323  95.8609 264.2852 14.34217101434961
IRIDIUM 143             
1 43258U 18030K   26201.75754012  .00000076  00000+0  20145-4 0  9994
2 43258  86.3955 276.5247 0002331  95.7340 264.4121 14.34217885434903
IRIDIUM 161             
1 43478U 18047C   26201.72512623  .00000161  00000+0  41848-4 0  9991
2 43478  86.4456  74.4444 0002163  80.7439 279.4006 14.43277404429976
IRIDIUM 152             
1 43479U 18047D   26201.73025737 -.00000060  00000+0 -28595-4 0  9992
2 43479  86.3927  74.3032 0001961  84.0371 276.1048 14.34217385427293
IRIDIUM 147             
1 43480U 18047E   26201.87613699  .00000079  00000+0  21311-4 0  9996
2 43480  86.3932  74.2482 0002297  87.5600 272.5859 14.34218010427314
IRIDIUM 110             
1 43481U 18047F   26201.88247794  .00000209  00000+0  67402-4 0  9993
2 43481  86.3936  74.3385 0002019  78.2279 281.9143 14.34217536427304
IRIDIUM 162             
1 43482U 18047G   26201.71882096  .00000163  00000+0  42598-4 0  9994
2 43482  86.4454  74.3375 0002186  86.6507 273.4944 14.43280193429960
IRIDIUM 160             
1 43569U 18061A   26201.06086147  .00000093  00000+0  26041-4 0  9994
2 43569  86.3939  43.0457 0002209  86.9719 273.1729 14.34217872418084
IRIDIUM 166             
1 43570U 18061B   26201.50484360  .00000012  00000+0 -27285-5 0  9998
2 43570  86.3937  42.8099 0002290  89.4560 270.6899 14.34217653418172
IRIDIUM 158             
1 43571U 18061C   26201.26382510  .00000145  00000+0  44748-4 0  9994
2 43571  86.3937  42.9206 0002113  89.0737 271.0701 14.34217825418101
IRIDIUM 165             
1 43572U 18061D   26201.28919568  .00000109  00000+0  31762-4 0  9998
2 43572  86.3944  42.9569 0002244  91.1334 269.0119 14.34217576418130
IRIDIUM 155             
1 43573U 18061E   26201.80928749  .00000052  00000+0  11408-4 0  9990
2 43573  86.3936  42.6068 0002156  90.6460 269.4983 14.34217882418176
IRIDIUM 154             
1 43574U 18061F   26201.51118658  .00000017  00000+0 -93927-6 0  9999
2 43574  86.3935  42.8670 0002199  88.8576 271.2872 14.34217319418185
IRIDIUM 163             
1 43575U 18061G   26201.07354741  .00000074  00000+0  19263-4 0  9997
2 43575  86.3935  42.9641 0002123  87.7459 272.3980 14.34217883418098
